{
    "links": {
        "self": "http://www.neowsapp.com/rest/v1/neo/3476773?api_key=iIulBulltgU6a56xZRHN4H3l9WmuAYTsLGpBGhQ2"
    },
    "id": "3476773",
    "neo_reference_id": "3476773",
    "name": "(2009 VS44)",
    "designation": "2009 VS44",
    "nasa_jpl_url": "http://ssd.jpl.nasa.gov/sbdb.cgi?sstr=3476773",
    "absolute_magnitude_h": 25.5,
    "estimated_diameter": {
        "kilometers": {
            "estimated_diameter_min": 0.0211132445,
            "estimated_diameter_max": 0.0472106499
        },
        "meters": {
            "estimated_diameter_min": 21.113244479,
            "estimated_diameter_max": 47.2106498806
        },
        "miles": {
            "estimated_diameter_min": 0.0131191578,
            "estimated_diameter_max": 0.0293353287
        },
        "feet": {
            "estimated_diameter_min": 69.2691770164,
            "estimated_diameter_max": 154.8905885541
        }
    },
    "is_potentially_hazardous_asteroid": false,
    "close_approach_data": [
        {
            "close_approach_date": "2005-11-24",
            "close_approach_date_full": "2005-Nov-24 00:51",
            "epoch_date_close_approach": 1132793460000,
            "relative_velocity": {
                "kilometers_per_second": "15.5306970434",
                "kilometers_per_hour": "55910.509356191",
                "miles_per_hour": "34740.616216351"
            },
            "miss_distance": {
                "astronomical": "0.1861107396",
                "lunar": "72.3970777044",
                "kilometers": "27841770.228284652",
                "miles": "17300073.8047741176"
            },
            "orbiting_body": "Earth"
        },
        {
            "close_approach_date": "2007-11-18",
            "close_approach_date_full": "2007-Nov-18 07:08",
            "epoch_date_close_approach": 1195369680000,
            "relative_velocity": {
                "kilometers_per_second": "12.9240490877",
                "kilometers_per_hour": "46526.5767158651",
                "miles_per_hour": "28909.8054043663"
            },
            "miss_distance": {
                "astronomical": "0.0925194405",
                "lunar": "35.9900623545",
                "kilometers": "13840711.232391735",
                "miles": "8600219.162346543"
            },
            "orbiting_body": "Earth"
        },
        {
            "close_approach_date": "2009-07-12",
            "close_approach_date_full": "2009-Jul-12 08:22",
            "epoch_date_close_approach": 1247386920000,
            "relative_velocity": {
                "kilometers_per_second": "4.0387177094",
                "kilometers_per_hour": "14539.3837540071",
                "miles_per_hour": "9034.2076442607"
            },
            "miss_distance": {
                "astronomical": "0.4507785473",
                "lunar": "175.3528548997",
                "kilometers": "67435510.517774251",
                "miles": "41902483.1917806238"
            },
            "orbiting_body": "Earth"
        },
        {
            "close_approach_date": "2009-11-10",
            "close_approach_date_full": "2009-Nov-10 20:32",
            "epoch_date_close_approach": 1257885120000,
            "relative_velocity": {
                "kilometers_per_second": "10.7538187255",
                "kilometers_per_hour": "38713.7474117467",
                "miles_per_hour": "24055.2171070378"
            },
            "miss_distance": {
                "astronomical": "0.0186225507",
                "lunar": "7.2441722223",
                "kilometers": "2785893.918687009",
                "miles": "1731074.2100943642"
            },
            "orbiting_body": "Earth"
        }
    ],
    "orbital_data": {
        "orbit_id": "9",
        "orbit_determination_date": "2017-04-06 08:59:11",
        "first_observation_date": "2009-11-15",
        "last_observation_date": "2009-11-20",
        "data_arc_in_days": 5,
        "observations_used": 39,
        "orbit_uncertainty": "8",
        "minimum_orbit_intersection": ".0163308",
        "jupiter_tisserand_invariant": "4.272",
        "epoch_osculation": "2455153.5",
        "eccentricity": ".4221208295086717",
        "semi_major_axis": "1.58337951056969",
        "inclination": "9.798923995294558",
        "ascending_node_longitude": "51.98145888500279",
        "orbital_period": "727.7395166185304",
        "perihelion_distance": ".9150020381409777",
        "perihelion_argument": "311.0518426421507",
        "aphelion_distance": "2.251756982998402",
        "perihelion_time": "2455110.811531163642",
        "mean_anomaly": "21.11723828396207",
        "mean_motion": ".4946824952872614",
        "equinox": "J2000",
        "orbit_class": {
            "orbit_class_type": "APO",
            "orbit_class_description": "Near-Earth asteroid orbits which cross the Earth’s orbit similar to that of 1862 Apollo",
            "orbit_class_range": "a (semi-major axis) > 1.0 AU; q (perihelion) < 1.017 AU"
        }
    },
    "is_sentry_object": false
}